{
  "type": "FeatureCollection",
  "features": [
    {
      "type": "Feature",
      "properties": {
        "norad_id": 35217,
        "name": "FENGYUN 1C DEB",
        "group": "fengyun-1c-debris",
        "lat": 62.67397599536373,
        "lon": -104.81044904075743,
        "alt_km": 1249.9711393790767,
        "timestamp": "2025-12-27T02:10:16.477264+00:00",
        "meta_object_name": "FENGYUN 1C DEB",
        "meta_object_id": "1999-025DPZ",
        "meta_epoch": "2025-12-25T12:41:47.728032",
        "meta_mean_motion": 13.57557246,
        "meta_eccentricity": 0.030057,
        "meta_inclination": 101.8763,
        "meta_ra_of_asc_node": 277.3373,
        "meta_arg_of_pericenter": 266.76,
        "meta_mean_anomaly": 89.9107,
        "meta_ephemeris_type": 0,
        "meta_classification_type": "U",
        "meta_norad_cat_id": 35217,
        "meta_element_set_no": 999,
        "meta_rev_at_epoch": 61393,
        "meta_bstar": 0.0020974,
        "meta_mean_motion_dot": 1.956e-05,
        "meta_mean_motion_ddot": 0,
        "tle_line1": "1 35217U 99025DPZ 25359.52902463  .00001956  00000+0  20974-2 0  9992",
        "tle_line2": "2 35217 101.8763 277.3373 0300570 266.7600  89.9107 13.57557246613931"
      },
      "geometry": {
        "type": "Point",
        "coordinates": [
          -104.81044904075743,
          62.67397599536373
        ]
      }
    },
    {
      "type": "Feature",
      "properties": {
        "norad_id": 35220,
        "name": "FENGYUN 1C DEB",
        "group": "fengyun-1c-debris",
        "lat": -3.2058444360218883,
        "lon": 71.98634274807554,
        "alt_km": 820.3483224590655,
        "timestamp": "2025-12-27T02:10:16.477275+00:00",
        "meta_object_name": "FENGYUN 1C DEB",
        "meta_object_id": "1999-025DQC",
        "meta_epoch": "2025-12-23T03:39:41.085504",
        "meta_mean_motion": 14.226262,
        "meta_eccentricity": 0.00439954,
        "meta_inclination": 99.0276,
        "meta_ra_of_asc_node": 67.4432,
        "meta_arg_of_pericenter": 276.7268,
        "meta_mean_anomaly": 82.8903,
        "meta_ephemeris_type": 0,
        "meta_classification_type": "U",
        "meta_norad_cat_id": 35220,
        "meta_element_set_no": 999,
        "meta_rev_at_epoch": 63331,
        "meta_bstar": 0.0016717154,
        "meta_mean_motion_dot": 3.73e-05,
        "meta_mean_motion_ddot": 0,
        "tle_line1": "1 35220U 99025DQC 25357.15255886  .00003730  00000+0  16717-2 0  9995",
        "tle_line2": "2 35220  99.0276  67.4432 0043995 276.7268  82.8903 14.22626200633312"
      },
      "geometry": {
        "type": "Point",
        "coordinates": [
          71.98634274807554,
          -3.2058444360218883
        ]
      }
    },
    {
      "type": "Feature",
      "properties": {
        "norad_id": 35223,
        "name": "FENGYUN 1C DEB",
        "group": "fengyun-1c-debris",
        "lat": 46.42275178606075,
        "lon": 175.04281500312325,
        "alt_km": 670.7885294765501,
        "timestamp": "2025-12-27T02:10:16.477285+00:00",
        "meta_object_name": "FENGYUN 1C DEB",
        "meta_object_id": "1999-025DQF",
        "meta_epoch": "2025-12-25T22:09:14.546592",
        "meta_mean_motion": 14.89205778,
        "meta_eccentricity": 0.0127006,
        "meta_inclination": 98.9742,
        "meta_ra_of_asc_node": 344.1602,
        "meta_arg_of_pericenter": 284.0839,
        "meta_mean_anomaly": 74.6286,
        "meta_ephemeris_type": 0,
        "meta_classification_type": "U",
        "meta_norad_cat_id": 35223,
        "meta_element_set_no": 999,
        "meta_rev_at_epoch": 94078,
        "meta_bstar": 0.00082018,
        "meta_mean_motion_dot": 8.95e-05,
        "meta_mean_motion_ddot": 0,
        "tle_line1": "1 35223U 99025DQF 25359.92308503  .00008950  00000+0  82018-3 0  9997",
        "tle_line2": "2 35223  98.9742 344.1602 0127006 284.0839  74.6286 14.89205778940788"
      },
      "geometry": {
        "type": "Point",
        "coordinates": [
          175.04281500312325,
          46.42275178606075
        ]
      }
    },
    {
      "type": "Feature",
      "properties": {
        "norad_id": 35229,
        "name": "FENGYUN 1C DEB",
        "group": "fengyun-1c-debris",
        "lat": -54.962536784483,
        "lon": -111.8593066461284,
        "alt_km": 681.977225059728,
        "timestamp": "2025-12-27T02:10:16.477295+00:00",
        "meta_object_name": "FENGYUN 1C DEB",
        "meta_object_id": "1999-025DQM",
        "meta_epoch": "2025-12-21T00:28:03.999936",
        "meta_mean_motion": 14.6104888,
        "meta_eccentricity": 0.00465106,
        "meta_inclination": 98.458,
        "meta_ra_of_asc_node": 74.1903,
        "meta_arg_of_pericenter": 189.9892,
        "meta_mean_anomaly": 170.0388,
        "meta_ephemeris_type": 0,
        "meta_classification_type": "U",
        "meta_norad_cat_id": 35229,
        "meta_element_set_no": 999,
        "meta_rev_at_epoch": 64627,
        "meta_bstar": 0.0032249287,
        "meta_mean_motion_dot": 0.00016061,
        "meta_mean_motion_ddot": 0,
        "tle_line1": "1 35229U 99025DQM 25355.01949074  .00016061  00000+0  32249-2 0  9995",
        "tle_line2": "2 35229  98.4580  74.1903 0046510 189.9892 170.0388 14.61048880646275"
      },
      "geometry": {
        "type": "Point",
        "coordinates": [
          -111.8593066461284,
          -54.962536784483
        ]
      }
    },
    {
      "type": "Feature",
      "properties": {
        "norad_id": 35231,
        "name": "FENGYUN 1C DEB",
        "group": "fengyun-1c-debris",
        "lat": -33.931853383901036,
        "lon": 49.84222307569829,
        "alt_km": 844.7368987489763,
        "timestamp": "2025-12-27T02:10:16.477305+00:00",
        "meta_object_name": "FENGYUN 1C DEB",
        "meta_object_id": "1999-025DQP",
        "meta_epoch": "2025-12-20T02:16:05.023776",
        "meta_mean_motion": 14.14529124,
        "meta_eccentricity": 0.00379148,
        "meta_inclination": 98.7195,
        "meta_ra_of_asc_node": 37.0855,
        "meta_arg_of_pericenter": 64.705,
        "meta_mean_anomaly": 295.8044,
        "meta_ephemeris_type": 0,
        "meta_classification_type": "U",
        "meta_norad_cat_id": 35231,
        "meta_element_set_no": 999,
        "meta_rev_at_epoch": 91606,
        "meta_bstar": 2.8184415e-05,
        "meta_mean_motion_dot": 1.2e-07,
        "meta_mean_motion_ddot": 0,
        "tle_line1": "1 35231U 99025DQP 25354.09450259  .00000012  00000+0  28184-4 0  9991",
        "tle_line2": "2 35231  98.7195  37.0855 0037914  64.7050 295.8044 14.14529124916066"
      },
      "geometry": {
        "type": "Point",
        "coordinates": [
          49.84222307569829,
          -33.931853383901036
        ]
      }
    },
    {
      "type": "Feature",
      "properties": {
        "norad_id": 35233,
        "name": "FENGYUN 1C DEB",
        "group": "fengyun-1c-debris",
        "lat": 16.360133979847195,
        "lon": 98.01304813715284,
        "alt_km": 780.1573324350411,
        "timestamp": "2025-12-27T02:10:16.477315+00:00",
        "meta_object_name": "FENGYUN 1C DEB",
        "meta_object_id": "1999-025DQR",
        "meta_epoch": "2025-12-24T18:11:08.638368",
        "meta_mean_motion": 14.42003835,
        "meta_eccentricity": 0.00419004,
        "meta_inclination": 98.7704,
        "meta_ra_of_asc_node": 98.2147,
        "meta_arg_of_pericenter": 225.0912,
        "meta_mean_anomaly": 288.5276,
        "meta_ephemeris_type": 0,
        "meta_classification_type": "U",
        "meta_norad_cat_id": 35233,
        "meta_element_set_no": 999,
        "meta_rev_at_epoch": 91349,
        "meta_bstar": 0.0019879315,
        "meta_mean_motion_dot": 6.549e-05,
        "meta_mean_motion_ddot": 0,
        "tle_line1": "1 35233U 99025DQR 25358.75773887  .00006549  00000+0  19879-2 0  9995",
        "tle_line2": "2 35233  98.7704  98.2147 0041900 225.0912 288.5276 14.42003835913493"
      },
      "geometry": {
        "type": "Point",
        "coordinates": [
          98.01304813715284,
          16.360133979847195
        ]
      }
    },
    {
      "type": "Feature",
      "properties": {
        "norad_id": 35234,
        "name": "FENGYUN 1C DEB",
        "group": "fengyun-1c-debris",
        "lat": -76.70472884588891,
        "lon": 65.65620228682296,
        "alt_km": 650.4583806655755,
        "timestamp": "2025-12-27T02:10:16.477325+00:00",
        "meta_object_name": "FENGYUN 1C DEB",
        "meta_object_id": "1999-025DQS",
        "meta_epoch": "2025-12-22T19:18:28.251360",
        "meta_mean_motion": 14.65612887,
        "meta_eccentricity": 0.01001329,
        "meta_inclination": 98.0674,
        "meta_ra_of_asc_node": 24.5617,
        "meta_arg_of_pericenter": 230.4813,
        "meta_mean_anomaly": 128.7507,
        "meta_ephemeris_type": 0,
        "meta_classification_type": "U",
        "meta_norad_cat_id": 35234,
        "meta_element_set_no": 999,
        "meta_rev_at_epoch": 94503,
        "meta_bstar": 0.00055440323,
        "meta_mean_motion_dot": 3.19e-05,
        "meta_mean_motion_ddot": 0,
        "tle_line1": "1 35234U 99025DQS 25356.80449365  .00003190  00000+0  55440-3 0  9995",
        "tle_line2": "2 35234  98.0674  24.5617 0100132 230.4813 128.7507 14.65612887945035"
      },
      "geometry": {
        "type": "Point",
        "coordinates": [
          65.65620228682296,
          -76.70472884588891
        ]
      }
    }
  ]
}